NORAD_CAT_ID,OBJECT_NAME,OBJECT_TYPE,EPOCH,MEAN_MOTION,ECCENTRICITY,INCLINATION,RA_OF_ASC_NODE,ARG_OF_PERICENTER,MEAN_ANOMALY,BSTAR,MEAN_MOTION_DOT,MEAN_MOTION_DDOT,TLE_LINE0,TLE_LINE1,TLE_LINE2,SEMIMAJOR_AXIS,PERIOD,APOGEE,PERIGEE,DECAYED
51724.0,STARLINK-3529,PAYLOAD,2023-01-28 08:35:29,15.08842942,0.0001393,53.2162,30.3178,86.1344,273.9807,0.00011048,1.471e-05,0.0,0 STARLINK-3529,1 51724U 22016L   23028.35798142  .00001471  00000-0  11048-3 0  9994,2 51724  53.2162  30.3178 0001393  86.1344 273.9807 15.08842942 51874,6917.871,95.437,540.7,538.773,0.0
51724.0,STARLINK-3529,PAYLOAD,2023-01-29 06:50:53,15.08847392,0.0001317,53.2163,26.1555,85.2051,274.9091,0.00017247,2.459e-05,0.0,0 STARLINK-3529,1 51724U 22016L   23029.28533892  .00002459  00000-0  17247-3 0  9990,2 51724  53.2163  26.1555 0001317  85.2051 274.9091 15.08847392 53072,6917.858,95.437,540.634,538.812,0.0
51724.0,STARLINK-3529,PAYLOAD,2023-01-29 22:44:45,15.08838345,0.0001274,53.2161,23.1818,86.3393,273.7745,4.7929e-05,4.75e-06,0.0,0 STARLINK-3529,1 51724U 22016L   23029.94774394  .00000475  00000-0  47929-4 0  9994,2 51724  53.2161  23.1818 0001274  86.3393 273.7745 15.08838345 52117,6917.885,95.438,540.632,538.869,0.0
51724.0,STARLINK-3529,PAYLOAD,2023-01-30 08:17:03,15.08840653,0.0001292,53.2161,21.3968,94.8188,265.2951,0.0001245,1.694e-05,0.0,0 STARLINK-3529,1 51724U 22016L   23030.34518296  .00001694  00000-0  12450-3 0  9991,2 51724  53.2161  21.3968 0001292  94.8188 265.2951 15.08840653 53233,6917.878,95.438,540.637,538.85,0.0
51724.0,STARLINK-3529,PAYLOAD,2023-01-30 22:35:32,15.08840459,0.0001321,53.2159,18.7199,100.4657,259.6484,2.69e-06,-2.45e-06,0.0,0 STARLINK-3529,1 51724U 22016L   23030.94134326 -.00000245  00000-0  26900-5 0  9994,2 51724  53.2159  18.7199 0001321 100.4657 259.6484 15.08840459 52268,6917.879,95.438,540.658,538.83,0.0
51724.0,STARLINK-3529,PAYLOAD,2023-01-31 08:07:50,15.08846442,0.0001328,53.2161,16.9359,98.4585,261.6558,0.00011215,1.498e-05,0.0,0 STARLINK-3529,1 51724U 22016L   23031.33878074  .00001498  00000-0  11215-3 0  9994,2 51724  53.2161  16.9359 0001328  98.4585 261.6558 15.08846442 52322,6917.861,95.437,540.644,538.807,0.0
51724.0,STARLINK-3529,PAYLOAD,2023-02-01 06:23:14,15.08848485,0.000134,53.2168,12.7732,94.5342,265.5803,0.00021528,3.141e-05,0.0,0 STARLINK-3529,1 51724U 22016L   23032.26614052  .00003141  00000-0  21528-3 0  9996,2 51724  53.2168  12.7732 0001340  94.5342 265.5803 15.08848485 53528,6917.854,95.437,540.646,538.792,0.0
51724.0,STARLINK-3529,PAYLOAD,2023-02-01 07:58:37,15.08849652,0.0001412,53.216,12.475,94.1176,265.9978,0.00023332,3.428e-05,0.0,0 STARLINK-3529,1 51724U 22016L   23032.33237999  .00003428  00000-0  23332-3 0  9998,2 51724  53.2160  12.4750 0001412  94.1176 265.9978 15.08849652 52475,6917.851,95.437,540.693,538.739,0.0
51724.0,STARLINK-3529,PAYLOAD,2023-02-02 03:03:15,15.0883841,0.000135,53.2164,8.9066,91.2687,268.846,1.1607e-05,-1.03e-06,0.0,0 STARLINK-3529,1 51724U 22016L   23033.12726644 -.00000103  00000-0  11607-4 0  9997,2 51724  53.2164   8.9066 0001350  91.2687 268.8460 15.08838410 53654,6917.885,95.438,540.684,538.816,0.0
51724.0,STARLINK-3529,PAYLOAD,2023-02-02 07:49:25,15.08839611,0.0001315,53.2169,8.0151,86.3644,273.7498,3.7319e-05,3.06e-06,0.0,0 STARLINK-3529,1 51724U 22016L   23033.32598678  .00000306  00000-0  37319-4 0  9995,2 51724  53.2169   8.0151 0001315  86.3644 273.7498 15.08839611 52620,6917.882,95.438,540.656,538.837,0.0
51724.0,STARLINK-3529,PAYLOAD,2023-02-03 04:29:26,15.08839229,0.000132,53.2165,4.1491,87.7295,272.3848,3.7003e-05,3.01e-06,0.0,0 STARLINK-3529,1 51724U 22016L   23034.18710988  .00000301  00000-0  37003-4 0  9995,2 51724  53.2165   4.1491 0001320  87.7295 272.3848 15.08839229 53814,6917.883,95.438,540.661,538.835,0.0
51724.0,STARLINK-3529,PAYLOAD,2023-02-03 07:40:12,15.08842533,0.0001317,53.216,3.5536,94.6273,265.4869,7.5845e-05,9.19e-06,0.0,0 STARLINK-3529,1 51724U 22016L   23034.31958911  .00000919  00000-0  75845-4 0  9991,2 51724  53.2160   3.5536 0001317  94.6273 265.4869 15.08842533 52773,6917.873,95.437,540.649,538.827,0.0
51724.0,STARLINK-3529,PAYLOAD,2023-02-04 07:30:58,15.08861761,0.0001356,53.2162,359.0936,90.3736,269.7412,0.00055212,8.515e-05,0.0,0 STARLINK-3529,1 51724U 22016L   23035.31318284  .00008515  00000-0  55212-3 0  9990,2 51724  53.2162 359.0936 0001356  90.3736 269.7412 15.08861761 53987,6917.814,95.436,540.617,538.741,0.0
51724.0,STARLINK-3529,PAYLOAD,2023-02-04 21:49:27,15.08843468,0.0001596,53.2162,356.4171,95.6443,264.4731,6.0029e-05,6.68e-06,0.0,0 STARLINK-3529,1 51724U 22016L   23035.90934853  .00000668  00000-0  60029-4 0  9995,2 51724  53.2162 356.4171 0001596  95.6443 264.4731 15.08843468 54079,6917.87,95.437,540.839,538.631,0.0
51724.0,STARLINK-3529,PAYLOAD,2023-02-05 07:21:46,15.08846271,0.0001344,53.217,354.6342,85.0453,275.0692,0.00023874,3.514e-05,0.0,0 STARLINK-3529,1 51724U 22016L   23036.30678817  .00003514  00000-0  23874-3 0  9994,2 51724  53.2170 354.6342 0001344  85.0453 275.0692 15.08846271 53071,6917.861,95.437,540.656,538.796,0.0
51724.0,STARLINK-3529,PAYLOAD,2023-02-05 21:40:15,15.08836377,0.0001416,53.2166,351.9581,85.7037,274.4117,0.00024479,3.61e-05,0.0,0 STARLINK-3529,1 51724U 22016L   23036.90295241  .00003610  00000-0  24479-3 0  9995,2 51724  53.2166 351.9581 0001416  85.7037 274.4117 15.08836377 53167,6917.891,95.438,540.736,538.777,0.0
51724.0,STARLINK-3529,PAYLOAD,2023-02-06 05:37:10,15.08854922,0.0001273,53.2165,350.4702,90.8468,269.267,0.0012565,0.00019774,0.0,0 STARLINK-3529,1 51724U 22016L   23037.23414933  .00019774  00000-0  12565-2 0  9993,2 51724  53.2165 350.4702 0001273  90.8468 269.2670 15.08854922 54276,6917.835,95.437,540.58,538.819,0.0
51724.0,STARLINK-3529,PAYLOAD,2023-02-07 05:27:56,15.08871514,0.0001521,53.2169,346.0106,84.8243,275.2923,0.00094753,0.00014837,0.0,0 STARLINK-3529,1 51724U 22016L   23038.22774037  .00014837  00000-0  94753-3 0  9992,2 51724  53.2169 346.0106 0001521  84.8243 275.2923 15.08871514 54420,6917.784,95.436,540.701,538.597,0.0
51724.0,STARLINK-3529,PAYLOAD,2023-02-07 07:03:19,15.0887454,0.0001518,53.2164,345.713,84.5885,275.528,0.0010742,0.00016865,0.0,0 STARLINK-3529,1 51724U 22016L   23038.29397932  .00016865  00000-0  10742-2 0  9992,2 51724  53.2164 345.7130 0001518  84.5885 275.5280 15.08874540 53377,6917.775,95.435,540.69,538.59,0.0
51724.0,STARLINK-3529,PAYLOAD,2023-02-08 03:43:20,15.08857001,0.0001268,53.2167,341.8424,115.8094,244.303,0.00050849,7.818e-05,0.0,0 STARLINK-3529,1 51724U 22016L   23039.15509751  .00007818  00000-0  50849-3 0  9993,2 51724  53.2167 341.8424 0001268 115.8094 244.3030 15.08857001 54567,6917.828,95.436,540.571,538.816,0.0
51724.0,STARLINK-3529,PAYLOAD,2023-02-09 05:09:31,15.08850413,0.0001645,53.2169,337.0903,70.6697,289.4473,0.0016369,0.00025867,0.0,0 STARLINK-3529,1 51724U 22016L   23040.21495295  .00025867  00000-0  16369-2 0  9991,2 51724  53.2169 337.0903 0001645  70.6697 289.4473 15.08850413 54723,6917.849,95.437,540.852,538.576,0.0
51724.0,STARLINK-3529,PAYLOAD,2023-02-10 01:49:32,15.08855943,0.0001469,53.2171,333.2229,83.3305,276.7855,0.00099565,0.000156,0.0,0 STARLINK-3529,1 51724U 22016L   23041.07606931  .00015600  00000-0  99565-3 0  9991,2 51724  53.2171 333.2229 0001469  83.3305 276.7855 15.08855943 53798,6917.832,95.437,540.713,538.68,0.0
51724.0,STARLINK-3529,PAYLOAD,2023-02-11 01:40:19,15.08845173,0.0001551,53.2165,328.7633,97.216,262.9008,0.00051903,7.983e-05,0.0,0 STARLINK-3529,1 51724U 22016L   23042.06967293  .00007983  00000-0  51903-3 0  9991,2 51724  53.2165 328.7633 0001551  97.2160 262.9008 15.08845173 55001,6917.865,95.437,540.803,538.657,0.0
51724.0,STARLINK-3529,PAYLOAD,2023-02-11 19:09:34,15.08839404,0.0001402,53.2151,325.4947,98.6154,261.4997,0.00023175,3.402e-05,0.0,0 STARLINK-3529,1 51724U 22016L   23042.79831546  .00003402  00000-0  23175-3 0  9994,2 51724  53.2151 325.4947 0001402  98.6154 261.4997 15.08839404 54056,6917.882,95.438,540.717,538.777,0.0
51724.0,STARLINK-3529,PAYLOAD,2023-02-11 22:20:20,15.08844983,0.00014,53.2168,324.9025,87.5048,272.6105,0.00021126,3.076e-05,0.0,0 STARLINK-3529,1 51724U 22016L   23042.93078991  .00003076  00000-0  21126-3 0  9998,2 51724  53.2168 324.9025 0001400  87.5048 272.6105 15.08844983 55135,6917.865,95.437,540.699,538.762,0.0
51724.0,STARLINK-3529,PAYLOAD,2023-02-12 11:03:25,15.088434,0.0001555,53.2149,322.5159,87.0513,273.0657,0.00053288,8.204e-05,0.0,0 STARLINK-3529,1 51724U 22016L   23043.46071242  .00008204  00000-0  53288-3 0  9991,2 51724  53.2149 322.5159 0001555  87.0513 273.0657 15.08843400 54150,6917.87,95.437,540.811,538.659,0.0
51724.0,STARLINK-3529,PAYLOAD,2023-02-13 04:32:40,15.08833214,0.00019,53.2171,319.2491,96.2121,263.9088,-2.2562e-05,-6.47e-06,0.0,0 STARLINK-3529,1 51724U 22016L   23044.18935843 -.00000647  00000-0 -22562-4 0  9994,2 51724  53.2171 319.2491 0001900  96.2121 263.9088 15.08833214 55326,6917.901,95.438,541.081,538.452,0.0
51724.0,STARLINK-3529,PAYLOAD,2023-02-13 10:54:13,15.08833244,0.0001794,53.2165,318.0588,92.0691,268.0507,-3.4507e-06,-3.43e-06,0.0,0 STARLINK-3529,1 51724U 22016L   23044.45432045 -.00000343  00000-0 -34507-5 0  9996,2 51724  53.2165 318.0588 0001794  92.0691 268.0507 15.08833244 54302,6917.901,95.438,541.007,538.525,0.0
51724.0,STARLINK-3529,PAYLOAD,2023-02-14 10:45:00,15.08840681,0.000136,53.2157,313.5969,76.8916,283.2228,0.00013262,1.823e-05,0.0,0 STARLINK-3529,1 51724U 22016L   23045.44791962  .00001823  00000-0  13262-3 0  9997,2 51724  53.2157 313.5969 0001360  76.8916 283.2228 15.08840681 55511,6917.878,95.438,540.684,538.802,0.0
51724.0,STARLINK-3529,PAYLOAD,2023-02-14 21:52:43,15.08822183,0.0001371,53.216,311.5154,68.35,291.7638,8.9687e-05,1.139e-05,0.0,0 STARLINK-3529,1 51724U 22016L   23045.91161416  .00001139  00000-0  89687-4 0  9999,2 51724  53.2160 311.5154 0001371  68.3500 291.7638 15.08822183 55589,6917.935,95.439,540.748,538.851,0.0
